[{"OBJECT_NAME":"TIANMU-1 03","OBJECT_ID":"2023-039A","EPOCH":"2026-03-09T22:39:38.212992","MEAN_MOTION":15.44207719,"ECCENTRICITY":0.00039809,"INCLINATION":97.5182,"RA_OF_ASC_NODE":239.2711,"ARG_OF_PERICENTER":99.8041,"MEAN_ANOMALY":260.3657,"EPHEMERIS_TYPE":0,"CLASSIFICATION_TYPE":"U","NORAD_CAT_ID":55973,"ELEMENT_SET_NO":999,"REV_AT_EPOCH":16550,"BSTAR":0.00045155304,"MEAN_MOTION_DOT":0.00020667,"MEAN_MOTION_DDOT":0},{"OBJECT_NAME":"QUBE","OBJECT_ID":"2024-149J","EPOCH":"2026-03-09T17:57:13.347360","MEAN_MOTION":15.42458509,"ECCENTRICITY":0.00018692,"INCLINATION":97.3809,"RA_OF_ASC_NODE":153.61,"ARG_OF_PERICENTER":197.3364,"MEAN_ANOMALY":162.782,"EPHEMERIS_TYPE":0,"CLASSIFICATION_TYPE":"U","NORAD_CAT_ID":60476,"ELEMENT_SET_NO":999,"REV_AT_EPOCH":8711,"BSTAR":0.00057856809,"MEAN_MOTION_DOT":0.00025003,"MEAN_MOTION_DDOT":0}]
